{
  "type": "FeatureCollection",
  "features": [
    {
      "type": "Feature",
      "properties": {
        "norad_id": 35052,
        "name": "IRIDIUM 33 DEB",
        "group": "iridium-33-debris",
        "lat": 6.380367289474412,
        "lon": 17.405566726918263,
        "alt_km": 760.2106160328385,
        "timestamp": "2025-12-20T20:38:44.826985+00:00",
        "meta_object_name": "IRIDIUM 33 DEB",
        "meta_object_id": "1997-051NY",
        "meta_epoch": "2025-12-20T00:34:57.537984",
        "meta_mean_motion": 14.38499976,
        "meta_eccentricity": 0.00134185,
        "meta_inclination": 86.3301,
        "meta_ra_of_asc_node": 17.3527,
        "meta_arg_of_pericenter": 64.7897,
        "meta_mean_anomaly": 295.4691,
        "meta_ephemeris_type": 0,
        "meta_classification_type": "U",
        "meta_norad_cat_id": 35052,
        "meta_element_set_no": 999,
        "meta_rev_at_epoch": 87380,
        "meta_bstar": 0.00013114955,
        "meta_mean_motion_dot": 4.21e-06,
        "meta_mean_motion_ddot": 0,
        "tle_line1": "1 35052U 97051NY  25354.02427706  .00000421  00000+0  13115-3 0  9994",
        "tle_line2": "2 35052  86.3301  17.3527 0013418  64.7897 295.4691 14.38499976873803"
      },
      "geometry": {
        "type": "Point",
        "coordinates": [
          17.405566726918263,
          6.380367289474412
        ]
      }
    },
    {
      "type": "Feature",
      "properties": {
        "norad_id": 35080,
        "name": "IRIDIUM 33 DEB",
        "group": "iridium-33-debris",
        "lat": 35.91310946371451,
        "lon": -134.2598711833312,
        "alt_km": 564.4139929094608,
        "timestamp": "2025-12-20T20:38:44.827001+00:00",
        "meta_object_name": "IRIDIUM 33 DEB",
        "meta_object_id": "1997-051PF",
        "meta_epoch": "2025-12-19T21:23:19.112352",
        "meta_mean_motion": 14.86825728,
        "meta_eccentricity": 0.0059091,
        "meta_inclination": 86.2077,
        "meta_ra_of_asc_node": 48.9572,
        "meta_arg_of_pericenter": 155.0881,
        "meta_mean_anomaly": 205.3218,
        "meta_ephemeris_type": 0,
        "meta_classification_type": "U",
        "meta_norad_cat_id": 35080,
        "meta_element_set_no": 999,
        "meta_rev_at_epoch": 69794,
        "meta_bstar": 0.0037964,
        "meta_mean_motion_dot": 0.00035094,
        "meta_mean_motion_ddot": 0,
        "tle_line1": "1 35080U 97051PF  25353.89119343  .00035094  00000+0  37964-2 0  9995",
        "tle_line2": "2 35080  86.2077  48.9572 0059091 155.0881 205.3218 14.86825728697942"
      },
      "geometry": {
        "type": "Point",
        "coordinates": [
          -134.2598711833312,
          35.91310946371451
        ]
      }
    },
    {
      "type": "Feature",
      "properties": {
        "norad_id": 35297,
        "name": "IRIDIUM 33 DEB",
        "group": "iridium-33-debris",
        "lat": 71.13791705021175,
        "lon": -131.36724777125858,
        "alt_km": 721.9032386257513,
        "timestamp": "2025-12-20T20:38:44.827017+00:00",
        "meta_object_name": "IRIDIUM 33 DEB",
        "meta_object_id": "1997-051PM",
        "meta_epoch": "2025-12-20T11:50:15.220608",
        "meta_mean_motion": 14.451882,
        "meta_eccentricity": 0.00180204,
        "meta_inclination": 86.386,
        "meta_ra_of_asc_node": 59.4502,
        "meta_arg_of_pericenter": 117.2164,
        "meta_mean_anomaly": 243.0877,
        "meta_ephemeris_type": 0,
        "meta_classification_type": "U",
        "meta_norad_cat_id": 35297,
        "meta_element_set_no": 999,
        "meta_rev_at_epoch": 70538,
        "meta_bstar": 0.00041153613,
        "meta_mean_motion_dot": 1.463e-05,
        "meta_mean_motion_ddot": 0,
        "tle_line1": "1 35297U 97051PM  25354.49323172  .00001463  00000+0  41154-3 0  9999",
        "tle_line2": "2 35297  86.3860  59.4502 0018020 117.2164 243.0877 14.45188200705384"
      },
      "geometry": {
        "type": "Point",
        "coordinates": [
          -131.36724777125858,
          71.13791705021175
        ]
      }
    },
    {
      "type": "Feature",
      "properties": {
        "norad_id": 35299,
        "name": "IRIDIUM 33 DEB",
        "group": "iridium-33-debris",
        "lat": -83.12905866860451,
        "lon": -2.959363348064658,
        "alt_km": 802.5821018207298,
        "timestamp": "2025-12-20T20:38:44.827034+00:00",
        "meta_object_name": "IRIDIUM 33 DEB",
        "meta_object_id": "1997-051PP",
        "meta_epoch": "2025-12-20T13:24:11.661120",
        "meta_mean_motion": 14.40896133,
        "meta_eccentricity": 0.00588105,
        "meta_inclination": 86.2869,
        "meta_ra_of_asc_node": 29.782,
        "meta_arg_of_pericenter": 77.5607,
        "meta_mean_anomaly": 74.0895,
        "meta_ephemeris_type": 0,
        "meta_classification_type": "U",
        "meta_norad_cat_id": 35299,
        "meta_element_set_no": 999,
        "meta_rev_at_epoch": 86443,
        "meta_bstar": 0.00051105789,
        "meta_mean_motion_dot": 1.693e-05,
        "meta_mean_motion_ddot": 0,
        "tle_line1": "1 35299U 97051PP  25354.55846830  .00001693  00000+0  51106-3 0  9992",
        "tle_line2": "2 35299  86.2869  29.7820 0058810  77.5607  74.0895 14.40896133864438"
      },
      "geometry": {
        "type": "Point",
        "coordinates": [
          -2.959363348064658,
          -83.12905866860451
        ]
      }
    },
    {
      "type": "Feature",
      "properties": {
        "norad_id": 35480,
        "name": "IRIDIUM 33 DEB",
        "group": "iridium-33-debris",
        "lat": -83.14911008675391,
        "lon": -10.63045388901426,
        "alt_km": 744.6369975773978,
        "timestamp": "2025-12-20T20:38:44.827050+00:00",
        "meta_object_name": "IRIDIUM 33 DEB",
        "meta_object_id": "1997-051QA",
        "meta_epoch": "2025-12-15T08:30:57.118464",
        "meta_mean_motion": 14.49774703,
        "meta_eccentricity": 0.00160032,
        "meta_inclination": 86.3571,
        "meta_ra_of_asc_node": 23.7786,
        "meta_arg_of_pericenter": 97.0457,
        "meta_mean_anomaly": 263.2568,
        "meta_ephemeris_type": 0,
        "meta_classification_type": "U",
        "meta_norad_cat_id": 35480,
        "meta_element_set_no": 999,
        "meta_rev_at_epoch": 87069,
        "meta_bstar": 0.00045738518,
        "meta_mean_motion_dot": 1.785e-05,
        "meta_mean_motion_ddot": 0,
        "tle_line1": "1 35480U 97051QA  25349.35482776  .00001785  00000+0  45739-3 0  9998",
        "tle_line2": "2 35480  86.3571  23.7786 0016003  97.0457 263.2568 14.49774703870695"
      },
      "geometry": {
        "type": "Point",
        "coordinates": [
          -10.63045388901426,
          -83.14911008675391
        ]
      }
    },
    {
      "type": "Feature",
      "properties": {
        "norad_id": 35484,
        "name": "IRIDIUM 33 DEB",
        "group": "iridium-33-debris",
        "lat": 73.98273102825394,
        "lon": 1.7580598113162735,
        "alt_km": 547.3418577976818,
        "timestamp": "2025-12-20T20:38:44.827066+00:00",
        "meta_object_name": "IRIDIUM 33 DEB",
        "meta_object_id": "1997-051QE",
        "meta_epoch": "2025-12-20T05:53:50.536320",
        "meta_mean_motion": 14.99070378,
        "meta_eccentricity": 0.0024384,
        "meta_inclination": 86.3597,
        "meta_ra_of_asc_node": 349.2326,
        "meta_arg_of_pericenter": 101.5315,
        "meta_mean_anomaly": 258.8656,
        "meta_ephemeris_type": 0,
        "meta_classification_type": "U",
        "meta_norad_cat_id": 35484,
        "meta_element_set_no": 999,
        "meta_rev_at_epoch": 62128,
        "meta_bstar": 0.0016692,
        "meta_mean_motion_dot": 0.00020443,
        "meta_mean_motion_ddot": 0,
        "tle_line1": "1 35484U 97051QE  25354.24572380  .00020443  00000+0  16692-2 0  9994",
        "tle_line2": "2 35484  86.3597 349.2326 0024384 101.5315 258.8656 14.99070378621287"
      },
      "geometry": {
        "type": "Point",
        "coordinates": [
          1.7580598113162735,
          73.98273102825394
        ]
      }
    },
    {
      "type": "Feature",
      "properties": {
        "norad_id": 35488,
        "name": "IRIDIUM 33 DEB",
        "group": "iridium-33-debris",
        "lat": 83.76584455791519,
        "lon": -26.81692066474206,
        "alt_km": 604.3654005525777,
        "timestamp": "2025-12-20T20:38:44.827082+00:00",
        "meta_object_name": "IRIDIUM 33 DEB",
        "meta_object_id": "1997-051QJ",
        "meta_epoch": "2025-12-18T06:44:16.731744",
        "meta_mean_motion": 14.83196659,
        "meta_eccentricity": 0.00291507,
        "meta_inclination": 86.3243,
        "meta_ra_of_asc_node": 298.3231,
        "meta_arg_of_pericenter": 24.8223,
        "meta_mean_anomaly": 335.4395,
        "meta_ephemeris_type": 0,
        "meta_classification_type": "U",
        "meta_norad_cat_id": 35488,
        "meta_element_set_no": 999,
        "meta_rev_at_epoch": 88348,
        "meta_bstar": 0.0014098178,
        "meta_mean_motion_dot": 0.00011627,
        "meta_mean_motion_ddot": 0,
        "tle_line1": "1 35488U 97051QJ  25352.28074921  .00011627  00000+0  14098-2 0  9990",
        "tle_line2": "2 35488  86.3243 298.3231 0029150  24.8223 335.4395 14.83196659883487"
      },
      "geometry": {
        "type": "Point",
        "coordinates": [
          -26.81692066474206,
          83.76584455791519
        ]
      }
    }
  ]
}